STARLINK-31334          
1 59157U 24044F   26068.81628732 -.00002151  00000+0 -68658-4 0  9997
2 59157  43.0034 109.8659 0001304 290.5191  69.5521 15.27573584113545
TEVEL2-8                
1 63239U 25052AF  26068.66815442  .00019130  00000+0  69304-3 0  9993
2 63239  97.4055 324.2923 0008031 124.9191 235.2804 15.28392908 54807
